1 44963U 20001BB  23034.12471511  .00099552  00000-0  26839-2 0  9993
2 44963  52.9757 302.6320 0007471 154.4925 205.6446 15.36995941171231
1 44963U 20001BB  23035.16501215  .00134809  00000-0  35807-2 0  9993
2 44963  52.9753 297.7288 0007515 159.5690 200.5613 15.37281782171409
1 44963U 20001BB  23035.16501215  .00134809  00000-0  35807-2 0  9993
2 44963  52.9753 297.7288 0007515 159.5690 200.5613 15.37281782171397
1 44963U 20001BB  23035.88010577  .00115839  00000-0  30676-2 0  9999
2 44963  52.9747 294.3567 0007506 162.6245 197.5015 15.37466385171513
1 44963U 20001BB  23036.07511826  .00109552  00000-0  29006-2 0  9994
2 44963  52.9738 293.4369 0007526 163.3071 196.8180 15.37503166171547
1 44963U 20001BB  23036.07511826  .00109552  00000-0  29006-2 0  9994
2 44963  52.9738 293.4369 0007526 163.3071 196.8180 15.37503166171536
1 44963U 20001BB  23036.92010617  .00118210  00000-0  31059-2 0  9992
2 44963  52.9735 289.4508 0007551 167.1234 192.9961 15.37696829171672
1 44963U 20001BB  23037.11508803  .00118939  00000-0  31199-2 0  9996
2 44963  52.9733 288.5304 0007542 168.2906 191.8272 15.37744272171705
1 44963U 20001BB  23037.11508803  .00118939  00000-0  31199-2 0  9996
2 44963  52.9733 288.5304 0007542 168.2906 191.8272 15.37744272171693
1 44963U 20001BB  23037.95992390  .00149865  00000-0  38795-2 0  9997
2 44963  52.9732 284.5436 0007579 172.5745 187.5370 15.38005617171834
1 44963U 20001BB  23037.95992390  .00149865  00000-0  38795-2 0  9997
2 44963  52.9732 284.5436 0007579 172.5745 187.5370 15.38005617171823
1 44963U 20001BB  23038.93453222  .00172489  00000-0  43977-2 0  9998
2 44963  52.9733 279.9415 0007506 177.0778 183.0269 15.38372492171988
1 44963U 20001BB  23038.93453222  .00172489  00000-0  43977-2 0  9998
2 44963  52.9733 279.9415 0007506 177.0778 183.0269 15.38372492171977
1 44963U 20001BB  23038.93453241  .00168170  00000-0  42908-2 0  9994
2 44963  52.9739 279.9416 0007523 177.2912 182.8132 15.38368515171983
1 44963U 20001BB  23039.77899822  .00202858  00000-0  50926-2 0  9997
2 44963  52.9737 275.9511 0007322 182.4637 177.6331 15.38715601172102
1 44963U 20001BB  23039.90889894  .00205300  00000-0  51425-2 0  9990
2 44963  52.9738 275.3368 0007350 183.1590 176.9367 15.38772737172131
1 44963U 20001BB  23040.03879547  .00202632  00000-0  50688-2 0  9995
2 44963  52.9737 274.7228 0007342 183.8774 176.2172 15.38825858172152
1 44963U 20001BB  23040.75314110  .00212291  00000-0  52503-2 0  9994
2 44963  52.9732 271.3449 0007280 187.4972 172.5922 15.39133245172252
1 44963U 20001BB  23040.81807448  .00214893  00000-0  53077-2 0  9999
2 44963  52.9732 271.0378 0007297 187.8965 172.1923 15.39161930172275
1 44963U 20001BB  23040.88300688  .00216832  00000-0  53493-2 0  9997
2 44963  52.9732 270.7306 0007310 188.1086 171.9799 15.39189524172284
1 44963U 20001BB  23041.85684262  .00214724  00000-0  52240-2 0  9995
2 44963  52.9725 266.1231 0007350 193.2419 166.8392 15.39623486172432
1 44963U 20001BB  23041.85684262  .00214724  00000-0  52240-2 0  9995
2 44963  52.9725 266.1231 0007350 193.2419 166.8392 15.39623486172421
1 44963U 20001BB  23042.89530910  .00222380  00000-0  53249-2 0  9997
2 44963  52.9720 261.2062 0007306 198.8093 161.2641 15.40075263172594
1 44963U 20001BB  23042.89530910  .00222380  00000-0  53249-2 0  9997
2 44963  52.9720 261.2062 0007306 198.8093 161.2641 15.40075263172583
1 44963U 20001BB  23043.54419630  .00237191  00000-0  56156-2 0  9991
2 44963  52.9716 258.1345 0007519 202.6143 157.4529 15.40355435172699
1 44963U 20001BB  23043.73883794  .00241089  00000-0  56872-2 0  9994
2 44963  52.9716 257.2124 0007589 203.7780 156.2873 15.40448894172725
1 44963U 20001BB  23043.73883794  .00241089  00000-0  56872-2 0  9994
2 44963  52.9716 257.2124 0007589 203.7780 156.2873 15.40448894172714
1 44963U 20001BB  23044.84159320  .00222118  00000-0  51670-2 0  9991
2 44963  52.9720 251.9849 0007439 212.3340 147.7208 15.40951712172889
1 44963U 20001BB  23045.29556411  .00243013  00000-0  55976-2 0  9993
2 44963  52.9724 249.8320 0007289 216.3808 143.6700 15.41163141172962
1 44963U 20001BB  23045.29556411  .00243013  00000-0  55976-2 0  9993
2 44963  52.9724 249.8320 0007289 216.3808 143.6700 15.41163141172951
1 44963U 20001BB  23045.81431694  .00220537  00000-0  50589-2 0  9997
2 44963  52.9725 247.3712 0007195 220.1201 139.9272 15.41381987173049
1 44963U 20001BB  23045.81431694  .00220537  00000-0  50589-2 0  9997
2 44963  52.9725 247.3712 0007195 220.1201 139.9272 15.41381987173038
1 44963U 20001BB  23046.59230111  .00288311  00000-0  64721-2 0  9991
2 44963  52.9714 243.6787 0007025 225.0046 135.0388 15.41754373173162
1 44963U 20001BB  23046.78676536  .00282550  00000-0  63259-2 0  9991
2 44963  52.9708 242.7541 0007073 225.8622 134.1800 15.41857550173197
1 44963U 20001BB  23046.78676536  .00282550  00000-0  63259-2 0  9991
2 44963  52.9708 242.7541 0007073 225.8622 134.1800 15.41857550173186
1 44963U 20001BB  23047.56448900  .00270576  00000-0  59841-2 0  9997
2 44963  52.9705 239.0612 0007084 231.0963 128.9409 15.42273471173316
1 44963U 20001BB  23047.88848209  .00242421  00000-0  53546-2 0  9992
2 44963  52.9705 237.5214 0007100 233.6186 126.4163 15.42426413173362
1 44963U 20001BB  23047.95327664  .00232011  00000-0  51268-2 0  9990
2 44963  52.9704 237.2135 0007110 234.0863 125.9481 15.42456693173368
1 44963U 20001BB  23048.53637761  .00203198  00000-0  44720-2 0  9996
2 44963  52.9702 234.4415 0007049 238.3693 121.6623 15.42697087173461
1 44963U 20001BB  23048.53637761  .00203198  00000-0  44720-2 0  9996
2 44963  52.9702 234.4415 0007049 238.3693 121.6623 15.42697087173450
1 44963U 20001BB  23048.86028585  .00184277  00000-0  40506-2 0  9994
2 44963  52.9704 232.9012 0007087 240.8224 119.2071 15.42813021173513
1 44963U 20001BB  23048.98984160  .00186735  00000-0  40958-2 0  9999
2 44963  52.9703 232.2848 0007085 241.8375 118.1914 15.42866931173521
1 44963U 20001BB  23049.50802572  .00187178  00000-0  40792-2 0  9992
2 44963  52.9703 229.8200 0007008 244.8573 115.1704 15.43057048173619
1 44963U 20001BB  23049.89661681  .00198793  00000-0  43012-2 0  9991
2 44963  52.9706 227.9707 0007140 248.8538 111.1703 15.43222057173669
1 44963U 20001BB  23050.60892553  .00208148  00000-0  44510-2 0  9996
2 44963  52.9707 224.5804 0007162 255.2376 104.7835 15.43532139173778
1 44963U 20001BB  23051.19162036  .00215991  00000-0  45758-2 0  9996
2 44963  52.9708 221.8057 0007159 260.6333  99.3862 15.43776523173875
1 44963U 20001BB  23051.19162036  .00215991  00000-0  45758-2 0  9996
2 44963  52.9708 221.8057 0007159 260.6333  99.3862 15.43776523173864
1 44963U 20001BB  23051.83896027  .00195949  00000-0  41292-2 0  9990
2 44963  52.9701 218.7232 0007005 268.0247  91.9955 15.44017509173968
1 44963U 20001BB  23052.61562949  .00235294  00000-0  48786-2 0  9993
2 44963  52.9707 215.0225 0007098 274.0382  85.9811 15.44334623174093
1 44963U 20001BB  23052.74505805  .00233057  00000-0  48246-2 0  9991
2 44963  52.9706 214.4045 0007094 274.4120  85.6073 15.44390293174109
1 44963U 20001BB  23052.80977037  .00227660  00000-0  47119-2 0  9999
2 44963  52.9708 214.0961 0007070 274.7286  85.2910 15.44418404174127
1 44963U 20001BB  23053.13331635  .00199265  00000-0  41227-2 0  9997
2 44963  52.9707 212.5534 0007104 277.0354  82.9843 15.44544921174162
1 44963U 20001BB  23053.52153449  .00197939  00000-0  40736-2 0  9995
2 44963  52.9707 210.7021 0007168 279.7719  80.2476 15.44706092174237
1 44963U 20001BB  23053.78032542  .00201788  00000-0  41362-2 0  9997
2 44963  52.9710 209.4680 0007247 282.2827  77.7366 15.44807751174271
1 44963U 20001BB  23053.78032542  .00201788  00000-0  41362-2 0  9997
2 44963  52.9710 209.4680 0007247 282.2827  77.7366 15.44807751174260
1 44963U 20001BB  23054.55659510  .00234249  00000-0  47274-2 0  9999
2 44963  52.9713 205.7640 0007463 288.1386  71.8806 15.45132082174390
1 44963U 20001BB  23054.81531528  .00218315  00000-0  44000-2 0  9996
2 44963  52.9715 204.5293 0007485 290.0971  69.9228 15.45234956174433
1 44963U 20001BB  23054.81531528  .00218315  00000-0  44000-2 0  9996
2 44963  52.9715 204.5293 0007485 290.0971  69.9228 15.45234956174422
1 44963U 20001BB  23055.39736442  .00232109  00000-0  46271-2 0  9991
2 44963  52.9717 201.7512 0007501 294.3278  65.6944 15.45499891174523
1 44963U 20001BB  23055.59135823  .00196224  00000-0  39207-2 0  9997
2 44963  52.9717 200.8250 0007566 296.0094  64.0131 15.45577559174549
1 44963U 20001BB  23055.65602085  .00189002  00000-0  37771-2 0  9993
2 44963  52.9717 200.5162 0007592 296.4639  63.5586 15.45601549174563
1 44963U 20001BB  23056.10862447  .00199737  00000-0  39580-2 0  9990
2 44963  52.9711 198.3543 0007784 300.0640  59.9592 15.45803496174629
1 44963U 20001BB  23056.49652172  .00227171  00000-0  44552-2 0  9993
2 44963  52.9704 196.5013 0007936 303.1082  56.9160 15.45994404174680
1 44963U 20001BB  23056.56116726  .00214785  00000-0  42161-2 0  9992
2 44963  52.9704 196.1924 0007962 303.5542  56.4702 15.46017474174705
1 44963U 20001BB  23056.75509595  .00236102  00000-0  46062-2 0  9994
2 44963  52.9705 195.2658 0008078 304.7571  55.2673 15.46110249174735
1 44963U 20001BB  23057.07828093  .00258128  00000-0  49908-2 0  9991
2 44963  52.9697 193.7209 0008393 305.4473  54.5748 15.46283060174770
1 44963U 20001BB  23057.46605330  .00297430  00000-0  56744-2 0  9996
2 44963  52.9698 191.8674 0008498 307.5211  52.5022 15.46517397174849
1 44963U 20001BB  23057.46605330  .00297430  00000-0  56744-2 0  9996
2 44963  52.9698 191.8674 0008498 307.5211  52.5022 15.46517397174838
1 44963U 20001BB  23057.72453903  .00286485  00000-0  54481-2 0  9996
2 44963  52.9697 190.6312 0008548 309.5657  50.4593 15.46652600174887
1 44963U 20001BB  23057.72453903  .00286485  00000-0  54481-2 0  9996
2 44963  52.9697 190.6312 0008548 309.5657  50.4593 15.46652600174876
1 44963U 20001BB  23058.37065349  .00373996  00000-0  69376-2 0  9994
2 44963  52.9699 187.5405 0008793 314.3866  45.6419 15.47035660174981
